STARLINK-31821          
1 59737U 24090H   26068.32648824 -.00001943  00000+0 -61104-4 0  9999
2 59737  42.9977 185.6308 0000597 125.4469 234.6438 15.27581297103386
TANSTAAFL-2             
1 62378U 24247B   26067.20753490  .00013897  00000+0  50872-3 0  9998
2 62378  44.9880 125.0934 0003072 298.8909  61.1666 15.28016845 67506
