[{"OBJECT_NAME":"STARLINK-31821","OBJECT_ID":"2024-090H","EPOCH":"2026-03-09T07:50:08.583936","MEAN_MOTION":15.27581297,"ECCENTRICITY":5.977e-5,"INCLINATION":42.9977,"RA_OF_ASC_NODE":185.6308,"ARG_OF_PERICENTER":125.4469,"MEAN_ANOMALY":234.6438,"EPHEMERIS_TYPE":0,"CLASSIFICATION_TYPE":"U","NORAD_CAT_ID":59737,"ELEMENT_SET_NO":999,"REV_AT_EPOCH":10338,"BSTAR":-6.1103514e-5,"MEAN_MOTION_DOT":-1.943e-5,"MEAN_MOTION_DDOT":0},{"OBJECT_NAME":"TANSTAAFL-2","OBJECT_ID":"2024-247B","EPOCH":"2026-03-08T04:58:51.015360","MEAN_MOTION":15.28016845,"ECCENTRICITY":0.00030723,"INCLINATION":44.988,"RA_OF_ASC_NODE":125.0934,"ARG_OF_PERICENTER":298.8909,"MEAN_ANOMALY":61.1666,"EPHEMERIS_TYPE":0,"CLASSIFICATION_TYPE":"U","NORAD_CAT_ID":62378,"ELEMENT_SET_NO":999,"REV_AT_EPOCH":6750,"BSTAR":0.00050871624,"MEAN_MOTION_DOT":0.00013897,"MEAN_MOTION_DDOT":0}]
